start=new Date('2023-04-12T00:00:00.000Z').valueOf();
sats=[{"APOAPSIS":"548.312","OBJECT_TYPE":"PAYLOAD","MEAN_MOTION_DDOT":"0.0000000000000","SEMIMAJOR_AXIS":"6925.399","MEAN_MOTION_DOT":"0.00012622","BSTAR":"0.00086510000000","CENTER_NAME":"EARTH","GP_ID":"229914056","ARG_OF_PERICENTER":"107.1869","OBJECT_ID":"2021-009V","REV_AT_EPOCH":"12024","MEAN_ELEMENT_THEORY":"SGP4","EPHEMERIS_TYPE":"0","NORAD_CAT_ID":"47567","OBJECT_NAME":"STARLINK-1966","REF_FRAME":"TEME","PERIAPSIS":"546.215","COUNTRY_CODE":"US","TLE_LINE2":"2 47567  53.0520 134.9916 0001514 107.1869 252.9286 15.06383615120243","RCS_SIZE":"LARGE","INCLINATION":"53.0520","ELEMENT_SET_NO":"999","MEAN_ANOMALY":"252.9286","RA_OF_ASC_NODE":"134.9916","TIME_SYSTEM":"UTC","EPOCH":"2023-04-11T09:10:04.223712","MEAN_MOTION":"15.06383615","FILE":"3885783","TLE_LINE1":"1 47567U 21009V   23101.38199333  .00012622  00000-0  86510-3 0  9993","CLASSIFICATION_TYPE":"U","SITE":"AFETR","LAUNCH_DATE":"2021-02-04","DECAY_DATE":null,"ECCENTRICITY":"0.00015140","PERIOD":"95.593"},{"SEMIMAJOR_AXIS":"6925.295","MEAN_MOTION_DOT":"0.00013379","OBJECT_TYPE":"PAYLOAD","APOAPSIS":"547.934","MEAN_MOTION_DDOT":"0.0000000000000","REV_AT_EPOCH":"12028","EPHEMERIS_TYPE":"0","MEAN_ELEMENT_THEORY":"SGP4","NORAD_CAT_ID":"47568","BSTAR":"0.00091494000000","CENTER_NAME":"EARTH","GP_ID":"229944916","ARG_OF_PERICENTER":"108.2283","OBJECT_ID":"2021-009W","RCS_SIZE":"LARGE","ELEMENT_SET_NO":"999","INCLINATION":"53.0504","EPOCH":"2023-04-11T14:33:47.808576","MEAN_ANOMALY":"251.8828","TIME_SYSTEM":"UTC","RA_OF_ASC_NODE":"133.9802","REF_FRAME":"TEME","OBJECT_NAME":"STARLINK-1967","PERIAPSIS":"546.387","TLE_LINE2":"2 47568  53.0504 133.9802 0001117 108.2283 251.8828 15.06417320120285","COUNTRY_CODE":"US","ECCENTRICITY":"0.00011170","LAUNCH_DATE":"2021-02-04","DECAY_DATE":null,"PERIOD":"95.591","TLE_LINE1":"1 47568U 21009W   23101.60680334  .00013379  00000-0  91494-3 0  9992","MEAN_MOTION":"15.06417320","FILE":"3885919","CLASSIFICATION_TYPE":"U","SITE":"AFETR"},{"OBJECT_TYPE":"PAYLOAD","APOAPSIS":"548.240","MEAN_MOTION_DDOT":"0.0000000000000","SEMIMAJOR_AXIS":"6925.280","MEAN_MOTION_DOT":"0.00011197","BSTAR":"0.00076891000000","CENTER_NAME":"EARTH","GP_ID":"229915557","ARG_OF_PERICENTER":"94.6513","OBJECT_ID":"2021-009Y","REV_AT_EPOCH":"12081","EPHEMERIS_TYPE":"0","MEAN_ELEMENT_THEORY":"SGP4","NORAD_CAT_ID":"47570","REF_FRAME":"TEME","OBJECT_NAME":"STARLINK-1969","PERIAPSIS":"546.050","COUNTRY_CODE":"US","TLE_LINE2":"2 47570  53.0538  94.9076 0001581  94.6513 265.4656 15.06422441120812","RCS_SIZE":"LARGE","ELEMENT_SET_NO":"999","INCLINATION":"53.0538","EPOCH":"2023-04-11T09:36:33.886944","TIME_SYSTEM":"UTC","RA_OF_ASC_NODE":"94.9076","MEAN_ANOMALY":"265.4656","TLE_LINE1":"1 47570U 21009Y   23101.40039221  .00011197  00000-0  76891-3 0  9996","MEAN_MOTION":"15.06422441","FILE":"3885783","CLASSIFICATION_TYPE":"U","SITE":"AFETR","ECCENTRICITY":"0.00015810","DECAY_DATE":null,"LAUNCH_DATE":"2021-02-04","PERIOD":"95.591"},{"RCS_SIZE":"LARGE","ELEMENT_SET_NO":"999","INCLINATION":"53.0527","EPOCH":"2023-04-11T11:26:42.128736","TIME_SYSTEM":"UTC","MEAN_ANOMALY":"275.3382","RA_OF_ASC_NODE":"104.5623","REF_FRAME":"TEME","OBJECT_NAME":"STARLINK-1970","PERIAPSIS":"546.171","TLE_LINE2":"2 47571  53.0527 104.5623 0001420  84.7769 275.3382 15.06419400120684","COUNTRY_CODE":"US","ECCENTRICITY":"0.00014200","DECAY_DATE":null,"LAUNCH_DATE":"2021-02-04","PERIOD":"95.591","TLE_LINE1":"1 47571U 21009Z   23101.47687649  .00014859  00000-0  10138-2 0  9996","MEAN_MOTION":"15.06419400","FILE":"3885783","CLASSIFICATION_TYPE":"U","SITE":"AFETR","SEMIMAJOR_AXIS":"6925.289","MEAN_MOTION_DOT":"0.00014859","OBJECT_TYPE":"PAYLOAD","APOAPSIS":"548.137","MEAN_MOTION_DDOT":"0.0000000000000","REV_AT_EPOCH":"12068","EPHEMERIS_TYPE":"0","MEAN_ELEMENT_THEORY":"SGP4","NORAD_CAT_ID":"47571","BSTAR":"0.00101380000000","CENTER_NAME":"EARTH","GP_ID":"229914306","ARG_OF_PERICENTER":"84.7769","OBJECT_ID":"2021-009Z"},{"OBJECT_NAME":"STARLINK-1971","REF_FRAME":"TEME","TLE_LINE2":"2 47572  53.0538 103.4552 0001073  93.0527 267.0585 15.06395338120726","COUNTRY_CODE":"US","PERIAPSIS":"546.485","INCLINATION":"53.0538","ELEMENT_SET_NO":"999","RCS_SIZE":"LARGE","TIME_SYSTEM":"UTC","RA_OF_ASC_NODE":"103.4552","MEAN_ANOMALY":"267.0585","EPOCH":"2023-04-11T17:22:19.750080","CLASSIFICATION_TYPE":"U","FILE":"3885919","MEAN_MOTION":"15.06395338","TLE_LINE1":"1 47572U 21009AA  23101.72383970  .00001719  00000-0  13429-3 0  9993","SITE":"AFETR","LAUNCH_DATE":"2021-02-04","DECAY_DATE":null,"ECCENTRICITY":"0.00010730","PERIOD":"95.592","APOAPSIS":"547.971","OBJECT_TYPE":"PAYLOAD","MEAN_MOTION_DDOT":"0.0000000000000","SEMIMAJOR_AXIS":"6925.363","MEAN_MOTION_DOT":"0.00001719","CENTER_NAME":"EARTH","BSTAR":"0.00013429000000","ARG_OF_PERICENTER":"93.0527","OBJECT_ID":"2021-009AA","GP_ID":"229944165","REV_AT_EPOCH":"12072","NORAD_CAT_ID":"47572","EPHEMERIS_TYPE":"0","MEAN_ELEMENT_THEORY":"SGP4"},{"ECCENTRICITY":"0.00013130","LAUNCH_DATE":"2021-02-04","DECAY_DATE":null,"PERIOD":"95.591","CLASSIFICATION_TYPE":"U","TLE_LINE1":"1 47573U 21009AB  23101.70171004  .00004551  00000-0  32409-3 0  9991","MEAN_MOTION":"15.06411906","FILE":"3885919","SITE":"AFETR","ELEMENT_SET_NO":"999","INCLINATION":"53.0548","RCS_SIZE":"LARGE","EPOCH":"2023-04-11T16:50:27.747456","MEAN_ANOMALY":"278.1465","RA_OF_ASC_NODE":"103.5538","TIME_SYSTEM":"UTC","REF_FRAME":"TEME","OBJECT_NAME":"STARLINK-1975","TLE_LINE2":"2 47573  53.0548 103.5538 0001313  81.9673 278.1465 15.06411906120717","COUNTRY_CODE":"US","PERIAPSIS":"546.268","REV_AT_EPOCH":"12071","NORAD_CAT_ID":"47573","EPHEMERIS_TYPE":"0","MEAN_ELEMENT_THEORY":"SGP4","CENTER_NAME":"EARTH","BSTAR":"0.00032409000000","OBJECT_ID":"2021-009AB","ARG_OF_PERICENTER":"81.9673","GP_ID":"229944417","SEMIMAJOR_AXIS":"6925.312","MEAN_MOTION_DOT":"0.00004551","OBJECT_TYPE":"PAYLOAD","APOAPSIS":"548.086","MEAN_MOTION_DDOT":"0.0000000000000"},{"CLASSIFICATION_TYPE":"U","MEAN_MOTION":"15.06445891","FILE":"3885919","TLE_LINE1":"1 47574U 21009AC  23101.58468356  .00015739  00000-0  10718-2 0  9995","SITE":"AFETR","LAUNCH_DATE":"2021-02-04","DECAY_DATE":null,"ECCENTRICITY":"0.00015760","PERIOD":"95.589","OBJECT_NAME":"STARLINK-1976","REF_FRAME":"TEME","TLE_LINE2":"2 47574  53.0527 134.0812 0001576  87.8046 272.3124 15.06445891120278","COUNTRY_CODE":"US","PERIAPSIS":"545.981","INCLINATION":"53.0527","ELEMENT_SET_NO":"999","RCS_SIZE":"LARGE","MEAN_ANOMALY":"272.3124","TIME_SYSTEM":"UTC","RA_OF_ASC_NODE":"134.0812","EPOCH":"2023-04-11T14:01:56.659584","CENTER_NAME":"EARTH","BSTAR":"0.00107180000000","OBJECT_ID":"2021-009AC","ARG_OF_PERICENTER":"87.8046","GP_ID":"229944651","REV_AT_EPOCH":"12027","NORAD_CAT_ID":"47574","MEAN_ELEMENT_THEORY":"SGP4","EPHEMERIS_TYPE":"0","APOAPSIS":"548.164","OBJECT_TYPE":"PAYLOAD","MEAN_MOTION_DDOT":"0.0000000000000","SEMIMAJOR_AXIS":"6925.208","MEAN_MOTION_DOT":"0.00015739"},{"REF_FRAME":"TEME","OBJECT_NAME":"STARLINK-1977","TLE_LINE2":"2 47575  53.0525 134.1283 0001495 110.2104 249.9046 15.06438204120279","COUNTRY_CODE":"US","PERIAPSIS":"546.061","ELEMENT_SET_NO":"999","INCLINATION":"53.0525","RCS_SIZE":"LARGE","EPOCH":"2023-04-11T13:46:00.260832","TIME_SYSTEM":"UTC","MEAN_ANOMALY":"249.9046","RA_OF_ASC_NODE":"134.1283","CLASSIFICATION_TYPE":"U","TLE_LINE1":"1 47575U 21009AD  23101.57361413  .00014331  00000-0  97805-3 0  9991","MEAN_MOTION":"15.06438204","FILE":"3885919","SITE":"AFETR","ECCENTRICITY":"0.00014950","LAUNCH_DATE":"2021-02-04","DECAY_DATE":null,"PERIOD":"95.590","OBJECT_TYPE":"PAYLOAD","APOAPSIS":"548.132","MEAN_MOTION_DDOT":"0.0000000000000","SEMIMAJOR_AXIS":"6925.231","MEAN_MOTION_DOT":"0.00014331","CENTER_NAME":"EARTH","BSTAR":"0.00097805000000","ARG_OF_PERICENTER":"110.2104","OBJECT_ID":"2021-009AD","GP_ID":"229943416","REV_AT_EPOCH":"12027","NORAD_CAT_ID":"47575","EPHEMERIS_TYPE":"0","MEAN_ELEMENT_THEORY":"SGP4"},{"GP_ID":"229914057","OBJECT_ID":"2021-009AE","ARG_OF_PERICENTER":"103.7701","BSTAR":"0.00079290000000","CENTER_NAME":"EARTH","EPHEMERIS_TYPE":"0","MEAN_ELEMENT_THEORY":"SGP4","NORAD_CAT_ID":"47576","REV_AT_EPOCH":"12079","MEAN_MOTION_DDOT":"0.0000000000000","APOAPSIS":"548.102","OBJECT_TYPE":"PAYLOAD","MEAN_MOTION_DOT":"0.00011551","SEMIMAJOR_AXIS":"6925.319","SITE":"AFETR","FILE":"3885783","MEAN_MOTION":"15.06409483","TLE_LINE1":"1 47576U 21009AE  23101.27506395  .00011551  00000-0  79290-3 0  9998","CLASSIFICATION_TYPE":"U","PERIOD":"95.592","LAUNCH_DATE":"2021-02-04","DECAY_DATE":null,"ECCENTRICITY":"0.00013250","PERIAPSIS":"546.267","COUNTRY_CODE":"US","TLE_LINE2":"2 47576  53.0529  95.4687 0001325 103.7701 256.3436 15.06409483120792","OBJECT_NAME":"STARLINK-1978","REF_FRAME":"TEME","RA_OF_ASC_NODE":"95.4687","MEAN_ANOMALY":"256.3436","TIME_SYSTEM":"UTC","EPOCH":"2023-04-11T06:36:05.525280","RCS_SIZE":"LARGE","INCLINATION":"53.0529","ELEMENT_SET_NO":"999"},{"GP_ID":"229944917","OBJECT_ID":"2021-009AF","ARG_OF_PERICENTER":"84.6543","BSTAR":"0.00003698900000","CENTER_NAME":"EARTH","EPHEMERIS_TYPE":"0","MEAN_ELEMENT_THEORY":"SGP4","NORAD_CAT_ID":"47577","REV_AT_EPOCH":"12065","MEAN_MOTION_DDOT":"0.0000000000000","OBJECT_TYPE":"PAYLOAD","APOAPSIS":"548.104","MEAN_MOTION_DOT":"0.00000270","SEMIMAJOR_AXIS":"6925.342","SITE":"AFETR","TLE_LINE1":"1 47577U 21009AF  23101.71415328  .00000270  00000-0  36989-4 0  9998","MEAN_MOTION":"15.06402007","FILE":"3885919","CLASSIFICATION_TYPE":"U","PERIOD":"95.592","ECCENTRICITY":"0.00012940","LAUNCH_DATE":"2021-02-04","DECAY_DATE":null,"PERIAPSIS":"546.311","TLE_LINE2":"2 47577  53.0528 108.4979 0001294  84.6543 275.4594 15.06402007120654","COUNTRY_CODE":"US","REF_FRAME":"TEME","OBJECT_NAME":"STARLINK-1979","EPOCH":"2023-04-11T17:08:22.843392","MEAN_ANOMALY":"275.4594","RA_OF_ASC_NODE":"108.4979","TIME_SYSTEM":"UTC","RCS_SIZE":"LARGE","ELEMENT_SET_NO":"999","INCLINATION":"53.0528"}];
